EOSSAT-1                
1 55053U 23001AW  26068.73619225  .00007695  00000+0  24844-3 0  9992
2 55053  97.3357 130.2294 0011263 110.3168 249.9285 15.32339828176689
STARLINK-36458          
1 67343U 26003K   26068.48126518  .00036087  00000+0  13148-2 0  9993
2 67343  42.9974 228.0961 0001430 230.7461 129.3264 15.27571621  8797
